ONEWEB-0320             
1 49190U 21083E   25117.34682085  .00000108  00000+0  24102-3 0  9999
2 49190  87.9140  58.1185 0001972  81.3694 278.7661 13.18687233175172
ONEWEB-0321             
1 49191U 21083F   25117.22040062  .00000132  00000+0  29351-3 0  9998
2 49191  87.9309 357.2605 0001468  78.1889 281.9409 13.20772076181929
ONEWEB-0322             
1 49192U 21083G   25117.30189865  .00000129  00000+0  31960-3 0  9998
2 49192  87.8992  42.9048 0001537  75.1845 284.9455 13.13468746176322
ONEWEB-0324             
1 49193U 21083H   25117.33259397  .00000059  00000+0  11577-3 0  9994
2 49193  87.9137  58.1006 0002033  87.5248 272.6117 13.18687746175195
ONEWEB-0325             
1 49194U 21083J   25117.33733997  .00000118  00000+0  26689-3 0  9994
2 49194  87.9138  58.1170 0001897  78.9388 281.1958 13.18685255175208
ONEWEB-0326             
1 49195U 21083K   25117.57932278  .00000064  00000+0  12918-3 0  9994
2 49195  87.9135  58.0604 0002401  81.3080 278.8324 13.18685959175229
ONEWEB-0327             
1 49196U 21083L   25117.35142948  .00000064  00000+0  13008-3 0  9999
2 49196  87.9136  58.1338 0002292  79.2137 280.9253 13.18685529175210
ONEWEB-0328             
1 49197U 21083M   25117.29174456 -.00000388  00000+0 -10969-2 0  9995
2 49197  87.8980  42.8571 0001855  82.7020 277.4320 13.13470565176304
